METEOR-M2 4             
1 59051U 24039A   26089.61120153  .00000031  00000+0  33465-4 0  9990
2 59051  98.6938  49.9291 0007873  43.7915 316.3886 14.22420439108097
GRBBETA                 
1 60237U 24128C   26089.55693585  .00004989  00000+0  34589-3 0  9997
2 60237  61.9890 132.0082 0049472 118.0985 242.5122 15.06004195 94425
TRANSPORTER-11 OBJECT A 
1 60468U 24149A   26089.46048407  .00012535  00000+0  41331-3 0  9992
2 60468  97.3759 169.7066 0004689 129.5911 230.5746 15.31573966 90008
WARATAH SEED-1          
1 60469U 24149B   26089.16429700  .00018710  00000+0  57208-3 0  9990
2 60469  97.3720 169.7799 0003164 130.7167 229.4350 15.33904343 89997
PHISAT 2                
1 60470U 24149C   26089.45905450  .00010236  00000+0  35604-3 0  9996
2 60470  97.3789 169.1753 0002833 131.1669 228.9817 15.29896772 89951
LEMUR-2-TOMATOKECHUP    
1 60471U 24149D   26089.50016592  .00016882  00000+0  50936-3 0  9991
2 60471  97.3821 171.4423 0002997 133.3649 226.7844 15.34349570 90090
CONNECTA IOT-1          
1 60472U 24149E   26089.46231872  .00006135  00000+0  26461-3 0  9993
2 60472  97.3793 167.1095 0002431 151.1887 208.9484 15.22899044 89814
LOPEN                   
1 60473U 24149F   26089.49834210  .00022846  00000+0  62500-3 0  9993
2 60473  97.3798 172.3853 0002356 142.8488 217.2920 15.37361889 90165
ROCK                    
1 60474U 24149G   26089.48516885  .00021507  00000+0  58832-3 0  9994
2 60474  97.3791 172.3907 0002719 142.0635 218.0802 15.37375989 90162
CONNECTA IOT-3          
1 60475U 24149H   26089.15567020  .00006803  00000+0  29306-3 0  9992
2 60475  97.3770 166.5855 0003531 155.4043 204.7363 15.22900826 89778
QUBE                    
1 60476U 24149J   26089.17639267  .00032497  00000+0  72401-3 0  9990
2 60476  97.3793 174.3078 0003088 141.6760 218.4708 15.43536330 90267
WREN-1                  
1 60478U 24149L   26089.44745974  .00030176  00000+0  79584-3 0  9996
2 60478  97.3786 172.9154 0005030 171.6496 188.4834 15.38430100 90200
TOMORROW-S1             
1 60479U 24149M   26089.50365413  .00011702  00000+0  38610-3 0  9999
2 60479  97.3775 170.2858 0003671 143.7199 216.4292 15.31573647 90049
FLOCK 4BE-18            
1 60480U 24149N   26089.16228193  .00027010  00000+0  69576-3 0  9990
2 60480  97.3752 172.2177 0004669 166.2951 193.8422 15.39178009 90141
FLOCK 4BE-7             
1 60481U 24149P   26089.46452872  .00026742  00000+0  73641-3 0  9996
2 60481  97.3779 172.0524 0003897 163.9132 196.2237 15.37120873 90147
FLOCK 4BE-16            
1 60483U 24149R   26089.48099243  .00436155  00000+0  22419-2 0  9998
2 60483  97.3662 176.3219 0004980 213.6084 146.4868 15.80048236 90430
FLOCK 4BE-26            
1 60484U 24149S   26089.20392912  .00140939  00000+0  25883-2 0  9998
2 60484  97.3730 172.4181 0006323 190.3388 169.7734 15.48710111 90165
TOMORROW-S2             
1 60485U 24149T   26089.46941337  .00028244  00000+0  92675-3 0  9996
2 60485  97.3842 170.6681 0003364 163.0832 197.0522 15.31560811 90035
FLOCK 4BE-36            
1 60486U 24149U   26088.98463599  .00029548  00000+0  73890-3 0  9998
2 60486  97.3761 172.6154 0004294 175.3969 184.7318 15.40069116 90154
FLOCK 4BE-25            
1 60487U 24149V   26089.48281057  .00021800  00000+0  60924-3 0  9999
2 60487  97.3819 172.2201 0003262 155.2426 204.8975 15.36704759 90143
FLOCK 4BE-31            
1 60488U 24149W   26089.20237017  .00031158  00000+0  75655-3 0  9991
2 60488  97.3818 173.4985 0003374 169.0577 191.0744 15.40957689 90204
FLOCK 4BE-20            
1 60489U 24149X   26089.47124892  .00020390  00000+0  58435-3 0  9990
2 60489  97.3723 171.2869 0004583 167.6455 192.4902 15.35926115 90125
FLOCK 4BE-23            
1 60490U 24149Y   26089.18217228  .00019641  00000+0  56983-3 0  9999
2 60490  97.3805 171.3299 0004017 175.6984 184.4295 15.35550911 90060
FLOCK 4BE-15            
1 60491U 24149Z   26089.47416594  .00118468  00000+0  25651-2 0  9993
2 60491  97.3735 172.8766 0004964 234.2102 125.8686 15.43993368 90220
FLOCK 4BE-17            
1 60492U 24149AA  26089.46266892  .00022943  00000+0  62686-3 0  9999
2 60492  97.3797 172.3457 0004023 163.4775 196.6602 15.37395111 90157
NUSAT-50 (NANCY ROMAN)  
1 60493U 24149AB  26089.46854239  .00015254  00000+0  52078-3 0  9999
2 60493  97.3799 171.3039 0004207 159.6157 200.5252 15.30402986 90091
FLOCK 4BE-22            
1 60494U 24149AC  26089.44710977  .00026360  00000+0  69148-3 0  9994
2 60494  97.3751 172.4061 0004203 176.0505 184.0774 15.38625429 90185
FLOCK 4BE-34            
1 60495U 24149AD  26089.53194653  .00024868  00000+0  65024-3 0  9992
2 60495  97.3802 173.2584 0004326 180.1797 179.9448 15.38737013 90226
TYCHE                   
1 60496U 24149AE  26089.17823970  .00007107  00000+0  28024-3 0  9990
2 60496  97.3784 168.0508 0004370 169.0033 191.1302 15.25865948 89859
FLOCK 4BE-32            
1 60497U 24149AF  26089.21695883  .00026468  00000+0  67705-3 0  9996
2 60497  97.3741 172.4504 0004233 179.4567 180.6684 15.39398387 90179
NUSAT-48 (HENRIETTA LE*)
1 60498U 24149AG  26089.47614093  .00014607  00000+0  51009-3 0  9991
2 60498  97.3918 171.3864 0004060 174.9581 185.1701 15.29677125 90109
FLOCK 4BE-30            
1 60499U 24149AH  26089.47595552  .00106079  00000+0  24966-2 0  9996
2 60499  97.3818 173.3252 0003327 210.3544 149.7511 15.41550970 89599
NUSAT-49 (KLARA DAN VO*)
1 60500U 24149AJ  26089.19298860  .00013851  00000+0  48758-3 0  9991
2 60500  97.3802 171.0246 0002682 178.2766 181.8484 15.29432528 90057
FLOCK 4BE-11            
1 60501U 24149AK  26089.18943884  .00028155  00000+0  70096-3 0  9997
2 60501  97.3723 172.5743 0004452 181.6068 178.5164 15.40213666 90183
FLOCK 4BE-33            
1 60502U 24149AL  26089.50704439  .00286044  00000+0  19588-2 0  9996
2 60502  97.3640 175.1016 0006828 194.0566 166.0510 15.73900807 90378
FLOCK 4BE-10            
1 60503U 24149AM  26089.23274337  .00627570  00000+0  21438-2 0  9996
2 60503  97.3675 176.8270 0005368 240.4831 119.5906 15.88267492 90437
YAM-7                   
1 60504U 24149AN  26089.18225845  .00011171  00000+0  37921-3 0  9990
2 60504  97.3810 169.8136 0003087 188.4849 171.6341 15.30666665 89968
FLOCK 4BE-24            
1 60505U 24149AP  26089.17310394  .00027642  00000+0  69167-3 0  9991
2 60505  97.3739 172.8031 0004436 191.3286 168.7861 15.40062723 90191
LUR-1                   
1 60506U 24149AQ  26089.21656842  .00011057  00000+0  39490-3 0  9997
2 60506  97.3772 168.6716 0003431 204.3018 155.8061 15.29011161 89907
TANAGER-1               
1 60507U 24149AR  26088.85486556  .00027578  00000+0  61612-3 0  9996
2 60507  97.3768 182.5062 0006122 213.2467 146.8397 15.43473303 90796
EAGLEEYE                
1 60508U 24149AS  26089.51658335  .00089303  00000+0  11141-2 0  9992
2 60508  97.3749 179.2430 0003786 184.1462 175.9764 15.59578925 90639
FLOCK 4BE-29            
1 60509U 24149AT  26089.18227556  .00027793  00000+0  66601-3 0  9990
2 60509  97.3824 174.0247 0002842 193.8309 166.2860 15.41381620 90233
TRANSPORTER-11 OBJECT AU
1 60510U 24149AU  26089.19448579  .00021231  00000+0  57034-3 0  9994
2 60510  97.3753 172.4161 0003632 190.7711 169.3457 15.37937555 90161
FLOCK 4BE-2             
1 60511U 24149AV  26089.49558935  .00060716  00000+0  12723-2 0  9992
2 60511  97.3831 175.0250 0004200 192.0049 168.1100 15.45203531 90327
FLOCK 4BE-13            
1 60512U 24149AW  26089.18444967  .00023167  00000+0  58890-3 0  9993
2 60512  97.3740 172.9041 0004489 179.8913 180.2335 15.39617364 90201
FLOCK 4BE-27            
1 60513U 24149AX  26089.18660969  .00013394  00000+0  42185-3 0  9997
2 60513  97.3848 171.0795 0003512 204.2097 155.8980 15.33033597 90038
FLOCK 4BE-9             
1 60514U 24149AY  26089.18681829  .00023513  00000+0  62319-3 0  9991
2 60514  97.3811 172.8350 0002930 192.9885 167.1285 15.38335439 90169
FLOCK 4BE-8             
1 60515U 24149AZ  26089.50611419  .01639790  18744-2  21769-2 0  9997
2 60515  97.3516 178.0353 0010112 275.6033  84.4095 16.07092896 90566
FLOCK 4BE-6             
1 60516U 24149BA  26089.48399932  .00021380  00000+0  58552-3 0  9991
2 60516  97.3811 172.6274 0003709 194.3974 165.7165 15.37337360 90170
FLOCK 4BE-14            
1 60517U 24149BB  26089.20772999  .00027105  00000+0  71450-3 0  9993
2 60517  97.3723 172.4319 0004626 199.8039 160.3027 15.38468649 90176
FLOCK 4BE-1             
1 60518U 24149BC  26089.49615496  .00029452  00000+0  74079-3 0  9990
2 60518  97.3795 173.7302 0004471 198.8958 161.2123 15.39891859 90259
FLOCK 4BE-28            
1 60519U 24149BD  26089.49441928  .00030589  00000+0  71726-3 0  9997
2 60519  97.3767 174.2197 0004553 197.7380 162.3709 15.42011454 90302
IPERDRONE.0             
1 60520U 24149BE  26089.23238925  .00068627  00000+0  94506-3 0  9997
2 60520  97.3799 179.1651 0003994 172.0009 188.1311 15.57015077 90597
TRANSPORTER-11 OBJECT BF
1 60521U 24149BF  26089.21266826  .00108538  00000+0  11612-2 0  9999
2 60521  97.3803 180.5475 0004260 177.4419 182.6862 15.63511689 90671
CONNECTA IOT-2          
1 60522U 24149BG  26089.50140437  .00007571  00000+0  32234-3 0  9990
2 60522  97.3867 168.8733 0005259 231.1851 128.8917 15.23255079 89917
PTD-R (TYVAK-0127)      
1 60523U 24149BH  26089.23467559  .00164173  00000+0  10283-2 0  9999
2 60523  97.3748 183.6917 0004710 211.9368 148.1612 15.76320097 90904
CONNECTA IOT-4          
1 60524U 24149BJ  26089.49085720  .00025044  00000+0  64322-3 0  9991
2 60524  97.3811 173.1001 0005506 201.7159 158.3854 15.39279812 90215
ORESAT0.5               
1 60525U 24149BK  26089.48413046  .00027379  00000+0  64114-3 0  9999
2 60525  97.3741 174.4579 0005792 189.8803 170.2331 15.42066926 90331
DEIMOS                  
1 60526U 24149BL  26089.47630890  .00026545  00000+0  63674-3 0  9991
2 60526  97.3796 174.6221 0005623 195.7491 164.3582 15.41349463 90319
